{
  "type": "FeatureCollection",
  "features": [
    {
      "type": "Feature",
      "properties": {
        "norad_id": 34079,
        "name": "IRIDIUM 33 DEB",
        "group": "iridium-33-debris",
        "lat": 64.42997661238182,
        "lon": 177.32067194472864,
        "alt_km": 613.8059542860647,
        "timestamp": "2025-12-20T22:39:11.009314+00:00",
        "meta_object_name": "IRIDIUM 33 DEB",
        "meta_object_id": "1997-051CN",
        "meta_epoch": "2025-12-20T07:37:00.373152",
        "meta_mean_motion": 14.83707217,
        "meta_eccentricity": 0.00047155,
        "meta_inclination": 86.3768,
        "meta_ra_of_asc_node": 5.2156,
        "meta_arg_of_pericenter": 341.2972,
        "meta_mean_anomaly": 29.7285,
        "meta_ephemeris_type": 0,
        "meta_classification_type": "U",
        "meta_norad_cat_id": 34079,
        "meta_element_set_no": 999,
        "meta_rev_at_epoch": 89090,
        "meta_bstar": 0.0011458545,
        "meta_mean_motion_dot": 9.499e-05,
        "meta_mean_motion_ddot": 0,
        "tle_line1": "1 34079U 97051CN  25354.31736543  .00009499  00000+0  11459-2 0  9998",
        "tle_line2": "2 34079  86.3768   5.2156 0004715 341.2972  29.7285 14.83707217890906"
      },
      "geometry": {
        "type": "Point",
        "coordinates": [
          177.32067194472864,
          64.42997661238182
        ]
      }
    },
    {
      "type": "Feature",
      "properties": {
        "norad_id": 34088,
        "name": "IRIDIUM 33 DEB",
        "group": "iridium-33-debris",
        "lat": 79.92410226602811,
        "lon": 47.800032076059956,
        "alt_km": 583.7166978372561,
        "timestamp": "2025-12-20T22:39:11.009331+00:00",
        "meta_object_name": "IRIDIUM 33 DEB",
        "meta_object_id": "1997-051CX",
        "meta_epoch": "2025-12-20T01:29:37.281120",
        "meta_mean_motion": 14.9169164,
        "meta_eccentricity": 0.0006466,
        "meta_inclination": 86.3842,
        "meta_ra_of_asc_node": 27.3589,
        "meta_arg_of_pericenter": 153.3403,
        "meta_mean_anomaly": 235.9617,
        "meta_ephemeris_type": 0,
        "meta_classification_type": "U",
        "meta_norad_cat_id": 34088,
        "meta_element_set_no": 999,
        "meta_rev_at_epoch": 88851,
        "meta_bstar": 0.0014202951,
        "meta_mean_motion_dot": 0.00014326,
        "meta_mean_motion_ddot": 0,
        "tle_line1": "1 34088U 97051CX  25354.06223705  .00014326  00000+0  14203-2 0  9996",
        "tle_line2": "2 34088  86.3842  27.3589 0006466 153.3403 235.9617 14.91691640888515"
      },
      "geometry": {
        "type": "Point",
        "coordinates": [
          47.800032076059956,
          79.92410226602811
        ]
      }
    },
    {
      "type": "Feature",
      "properties": {
        "norad_id": 34091,
        "name": "IRIDIUM 33 DEB",
        "group": "iridium-33-debris",
        "lat": -12.009417763116838,
        "lon": 62.29544296071352,
        "alt_km": 624.0004661813346,
        "timestamp": "2025-12-20T22:39:11.009347+00:00",
        "meta_object_name": "IRIDIUM 33 DEB",
        "meta_object_id": "1997-051DA",
        "meta_epoch": "2025-12-20T11:21:59.020992",
        "meta_mean_motion": 14.82341401,
        "meta_eccentricity": 0.00340405,
        "meta_inclination": 86.3417,
        "meta_ra_of_asc_node": 63.2908,
        "meta_arg_of_pericenter": 265.3506,
        "meta_mean_anomaly": 94.3828,
        "meta_ephemeris_type": 0,
        "meta_classification_type": "U",
        "meta_norad_cat_id": 34091,
        "meta_element_set_no": 999,
        "meta_rev_at_epoch": 87981,
        "meta_bstar": 0.0030472538,
        "meta_mean_motion_dot": 0.00024698,
        "meta_mean_motion_ddot": 0,
        "tle_line1": "1 34091U 97051DA  25354.47359978  .00024698  00000+0  30473-2 0  9997",
        "tle_line2": "2 34091  86.3417  63.2908 0034040 265.3506  94.3828 14.82341401879819"
      },
      "geometry": {
        "type": "Point",
        "coordinates": [
          62.29544296071352,
          -12.009417763116838
        ]
      }
    },
    {
      "type": "Feature",
      "properties": {
        "norad_id": 34097,
        "name": "IRIDIUM 33 DEB",
        "group": "iridium-33-debris",
        "lat": -79.52791862558807,
        "lon": -23.287787277911733,
        "alt_km": 749.6542687953697,
        "timestamp": "2025-12-20T22:39:11.009363+00:00",
        "meta_object_name": "IRIDIUM 33 DEB",
        "meta_object_id": "1997-051DG",
        "meta_epoch": "2025-12-20T11:18:18.737280",
        "meta_mean_motion": 14.34833925,
        "meta_eccentricity": 0.00817307,
        "meta_inclination": 86.2,
        "meta_ra_of_asc_node": 357.9952,
        "meta_arg_of_pericenter": 336.8917,
        "meta_mean_anomaly": 22.861,
        "meta_ephemeris_type": 0,
        "meta_classification_type": "U",
        "meta_norad_cat_id": 34097,
        "meta_element_set_no": 999,
        "meta_rev_at_epoch": 87230,
        "meta_bstar": 0.0010165837,
        "meta_mean_motion_dot": 3.014e-05,
        "meta_mean_motion_ddot": 0,
        "tle_line1": "1 34097U 97051DG  25354.47105020  .00003014  00000+0  10166-2 0  9996",
        "tle_line2": "2 34097  86.2000 357.9952 0081730 336.8917  22.8610 14.34833925872308"
      },
      "geometry": {
        "type": "Point",
        "coordinates": [
          -23.287787277911733,
          -79.52791862558807
        ]
      }
    },
    {
      "type": "Feature",
      "properties": {
        "norad_id": 34145,
        "name": "IRIDIUM 33 DEB",
        "group": "iridium-33-debris",
        "lat": 50.836899947035256,
        "lon": -26.4616132865459,
        "alt_km": 708.084789003181,
        "timestamp": "2025-12-20T22:39:11.009379+00:00",
        "meta_object_name": "IRIDIUM 33 DEB",
        "meta_object_id": "1997-051DY",
        "meta_epoch": "2025-12-20T09:05:57.135264",
        "meta_mean_motion": 14.42338365,
        "meta_eccentricity": 0.00557355,
        "meta_inclination": 86.2115,
        "meta_ra_of_asc_node": 329.1236,
        "meta_arg_of_pericenter": 69.5659,
        "meta_mean_anomaly": 291.1513,
        "meta_ephemeris_type": 0,
        "meta_classification_type": "U",
        "meta_norad_cat_id": 34145,
        "meta_element_set_no": 999,
        "meta_rev_at_epoch": 87748,
        "meta_bstar": 0.00077021697,
        "meta_mean_motion_dot": 2.611e-05,
        "meta_mean_motion_ddot": 0,
        "tle_line1": "1 34145U 97051DY  25354.37913351  .00002611  00000+0  77022-3 0  9990",
        "tle_line2": "2 34145  86.2115 329.1236 0055735  69.5659 291.1513 14.42338365877488"
      },
      "geometry": {
        "type": "Point",
        "coordinates": [
          -26.4616132865459,
          50.836899947035256
        ]
      }
    },
    {
      "type": "Feature",
      "properties": {
        "norad_id": 34146,
        "name": "IRIDIUM 33 DEB",
        "group": "iridium-33-debris",
        "lat": -68.19053062976313,
        "lon": 175.52507981506167,
        "alt_km": 725.298282661136,
        "timestamp": "2025-12-20T22:39:11.009395+00:00",
        "meta_object_name": "IRIDIUM 33 DEB",
        "meta_object_id": "1997-051DZ",
        "meta_epoch": "2025-12-20T10:36:37.304352",
        "meta_mean_motion": 14.49095208,
        "meta_eccentricity": 0.00262607,
        "meta_inclination": 86.283,
        "meta_ra_of_asc_node": 346.3974,
        "meta_arg_of_pericenter": 194.7947,
        "meta_mean_anomaly": 317.4256,
        "meta_ephemeris_type": 0,
        "meta_classification_type": "U",
        "meta_norad_cat_id": 34146,
        "meta_element_set_no": 999,
        "meta_rev_at_epoch": 88218,
        "meta_bstar": 0.00059944717,
        "meta_mean_motion_dot": 2.307e-05,
        "meta_mean_motion_ddot": 0,
        "tle_line1": "1 34146U 97051DZ  25354.44209843  .00002307  00000+0  59945-3 0  9999",
        "tle_line2": "2 34146  86.2830 346.3974 0026260 194.7947 317.4256 14.49095208882187"
      },
      "geometry": {
        "type": "Point",
        "coordinates": [
          175.52507981506167,
          -68.19053062976313
        ]
      }
    },
    {
      "type": "Feature",
      "properties": {
        "norad_id": 34159,
        "name": "IRIDIUM 33 DEB",
        "group": "iridium-33-debris",
        "lat": 11.365978925696366,
        "lon": 45.4783823363405,
        "alt_km": 771.9901988037464,
        "timestamp": "2025-12-20T22:39:11.009412+00:00",
        "meta_object_name": "IRIDIUM 33 DEB",
        "meta_object_id": "1997-051EN",
        "meta_epoch": "2025-12-20T14:15:10.537344",
        "meta_mean_motion": 14.38510951,
        "meta_eccentricity": 0.00260339,
        "meta_inclination": 86.35,
        "meta_ra_of_asc_node": 44.8924,
        "meta_arg_of_pericenter": 260.0458,
        "meta_mean_anomaly": 99.7801,
        "meta_ephemeris_type": 0,
        "meta_classification_type": "U",
        "meta_norad_cat_id": 34159,
        "meta_element_set_no": 999,
        "meta_rev_at_epoch": 88072,
        "meta_bstar": 0.00026124613,
        "meta_mean_motion_dot": 8.2e-06,
        "meta_mean_motion_ddot": 0,
        "tle_line1": "1 34159U 97051EN  25354.59387196  .00000820  00000+0  26125-3 0  9999",
        "tle_line2": "2 34159  86.3500  44.8924 0026033 260.0458  99.7801 14.38510951880722"
      },
      "geometry": {
        "type": "Point",
        "coordinates": [
          45.4783823363405,
          11.365978925696366
        ]
      }
    }
  ]
}